[{"OBJECT_NAME":"TIANMU-1 09","OBJECT_ID":"2023-101C","EPOCH":"2026-03-09T22:17:34.703232","MEAN_MOTION":15.29080822,"ECCENTRICITY":0.00049013,"INCLINATION":97.267,"RA_OF_ASC_NODE":121.1263,"ARG_OF_PERICENTER":139.4293,"MEAN_ANOMALY":220.7314,"EPHEMERIS_TYPE":0,"CLASSIFICATION_TYPE":"U","NORAD_CAT_ID":57401,"ELEMENT_SET_NO":999,"REV_AT_EPOCH":14647,"BSTAR":0.00030540035,"MEAN_MOTION_DOT":8.553e-5,"MEAN_MOTION_DDOT":0},{"OBJECT_NAME":"STARLINK-35868","OBJECT_ID":"2025-268Y","EPOCH":"2026-03-09T04:27:09.131040","MEAN_MOTION":15.27589789,"ECCENTRICITY":0.00030314,"INCLINATION":43.0033,"RA_OF_ASC_NODE":349.8208,"ARG_OF_PERICENTER":249.1192,"MEAN_ANOMALY":110.9336,"EPHEMERIS_TYPE":0,"CLASSIFICATION_TYPE":"U","NORAD_CAT_ID":66579,"ELEMENT_SET_NO":999,"REV_AT_EPOCH":1788,"BSTAR":0.0010188969,"MEAN_MOTION_DOT":0.00027892,"MEAN_MOTION_DDOT":0}]
